NORAD_CAT_ID,OBJECT_NAME,OBJECT_TYPE,EPOCH,MEAN_MOTION,ECCENTRICITY,INCLINATION,RA_OF_ASC_NODE,ARG_OF_PERICENTER,MEAN_ANOMALY,BSTAR,MEAN_MOTION_DOT,MEAN_MOTION_DDOT,TLE_LINE0,TLE_LINE1,TLE_LINE2,SEMIMAJOR_AXIS,PERIOD,APOGEE,PERIGEE,DECAYED
56448.0,STARLINK-5990,PAYLOAD,2023-08-06 16:48:44,14.98318612,0.0002955,70.0007,9.7255,268.0816,92.0005,-7.8256e-05,-1.026e-05,0.0,0 STARLINK-5990,1 56448U 23064A   23218.70051286 -.00001026  00000-0 -78256-4 0  9990,2 56448  70.0007   9.7255 0002955 268.0816  92.0005 14.98318612 13905,6950.228,96.108,574.147,570.039,0.0
56448.0,STARLINK-5990,PAYLOAD,2023-08-07 04:01:40,14.98325937,0.0003404,69.9996,8.5456,276.3227,83.7544,-6.9371e-05,-9.21e-06,0.0,0 STARLINK-5990,1 56448U 23064A   23219.16783024 -.00000921  00000-0 -69371-4 0  9994,2 56448  69.9996   8.5456 0003404 276.3227  83.7544 14.98325937 13977,6950.205,96.107,574.436,569.705,0.0
56448.0,STARLINK-5990,PAYLOAD,2023-08-07 18:26:52,14.98333735,0.0003344,69.9997,7.0305,270.3389,89.7387,1.115e-05,4e-07,0.0,0 STARLINK-5990,1 56448U 23064A   23219.76866409  .00000040  00000-0  11150-4 0  9991,2 56448  69.9997   7.0305 0003344 270.3389  89.7387 14.98333735 14068,6950.181,96.107,574.37,569.722,0.0
56448.0,STARLINK-5990,PAYLOAD,2023-08-08 20:05:00,14.98338495,0.0003318,69.9998,4.337,272.613,87.4649,0.00024457,2.827e-05,0.0,0 STARLINK-5990,1 56448U 23064A   23220.83681221  .00002827  00000-0  24457-3 0  9996,2 56448  69.9998   4.3370 0003318 272.6130  87.4649 14.98338495 14223,6950.167,96.106,574.338,569.726,0.0
56448.0,STARLINK-5990,PAYLOAD,2023-08-09 08:54:05,14.98334057,0.0002879,70.0006,2.9908,261.4392,98.6441,5.708e-06,-2.5e-07,0.0,0 STARLINK-5990,1 56448U 23064A   23221.37090046 -.00000025  00000-0  57080-5 0  9994,2 56448  70.0006   2.9908 0002879 261.4392  98.6441 14.98334057 14307,6950.18,96.107,574.046,570.044,0.0
56448.0,STARLINK-5990,PAYLOAD,2023-08-10 10:32:15,14.98339585,0.0002997,70.0002,0.2978,257.4733,102.6091,-0.00028067,-3.441e-05,0.0,0 STARLINK-5990,1 56448U 23064A   23222.43906380 -.00003441  00000-0 -28067-3 0  9996,2 56448  70.0002   0.2978 0002997 257.4733 102.6091 14.98339585 14461,6950.163,96.106,574.111,569.945,0.0
56448.0,STARLINK-5990,PAYLOAD,2023-08-11 10:34:16,14.98278385,0.0003297,70.0002,357.7719,272.9271,87.1511,0.00083714,9.897e-05,0.0,0 STARLINK-5990,1 56448U 23064A   23223.44046481  .00009897  00000-0  83714-3 0  9994,2 56448  70.0002 357.7719 0003297 272.9271  87.1511 14.98278385 14618,6950.353,96.11,574.509,569.926,0.0
56448.0,STARLINK-5990,PAYLOAD,2023-08-11 18:34:55,14.98333209,0.0003413,70.0004,356.9315,269.4891,90.5877,8.7004e-05,9.45e-06,0.0,0 STARLINK-5990,1 56448U 23064A   23223.77425493  .00000945  00000-0  87004-4 0  9996,2 56448  70.0004 356.9315 0003413 269.4891  90.5877 14.98333209 14667,6950.183,96.107,574.42,569.676,0.0
56448.0,STARLINK-5990,PAYLOAD,2023-08-13 02:37:37,14.98322464,0.0003259,70.0007,353.5636,260.994,99.0851,4.2619e-05,4.15e-06,0.0,0 STARLINK-5990,1 56448U 23064A   23225.10946182  .00000415  00000-0  42619-4 0  9993,2 56448  70.0007 353.5636 0003259 260.9940  99.0851 14.98322464 14867,6950.216,96.107,574.346,569.816,0.0
56448.0,STARLINK-5990,PAYLOAD,2023-08-13 18:38:57,14.98332407,0.0003235,70.0009,351.8807,268.9618,91.1171,-8.3701e-06,-1.93e-06,0.0,0 STARLINK-5990,1 56448U 23064A   23225.77705734 -.00000193  00000-0 -83701-5 0  9995,2 56448  70.0009 351.8807 0003235 268.9618  91.1171 14.98332407 14961,6950.185,96.107,574.299,569.802,0.0
56448.0,STARLINK-5990,PAYLOAD,2023-08-15 01:05:30,14.98330932,0.0003014,70.0014,348.6827,270.2497,89.8317,4.0365e-05,3.89e-06,0.0,0 STARLINK-5990,1 56448U 23064A   23227.04549558  .00000389  00000-0  40365-4 0  9990,2 56448  70.0014 348.6827 0003014 270.2497  89.8317 14.98330932 15158,6950.19,96.107,574.15,569.96,0.0
56448.0,STARLINK-5990,PAYLOAD,2023-08-16 01:07:31,14.9833089,0.0003172,70.0013,346.1592,269.1917,90.8878,-8.6284e-06,-1.96e-06,0.0,0 STARLINK-5990,1 56448U 23064A   23228.04689584 -.00000196  00000-0 -86284-5 0  9994,2 56448  70.0013 346.1592 0003172 269.1917  90.8878 14.98330890 15302,6950.19,96.107,574.26,569.851,0.0
56448.0,STARLINK-5990,PAYLOAD,2023-08-17 01:09:33,14.98323947,0.0003725,70.0013,343.635,267.4801,92.5932,-9.3932e-05,-1.214e-05,0.0,0 STARLINK-5990,1 56448U 23064A   23229.04829975 -.00001214  00000-0 -93932-4 0  9994,2 56448  70.0013 343.6350 0003725 267.4801  92.5932 14.98323947 15454,6950.212,96.107,574.666,569.488,0.0
56448.0,STARLINK-5990,PAYLOAD,2023-08-18 01:11:33,14.98326862,0.0003477,69.9997,341.1064,267.6988,92.3773,0.00011158,1.238e-05,0.0,0 STARLINK-5990,1 56448U 23064A   23230.04969261  .00001238  00000-0  11158-3 0  9992,2 56448  69.9997 341.1064 0003477 267.6988  92.3773 14.98326862 15606,6950.203,96.107,574.484,569.651,0.0
56448.0,STARLINK-5990,PAYLOAD,2023-08-19 01:13:34,14.98324392,0.000333,70.0006,338.5831,268.9961,91.0817,6.583e-05,6.92e-06,0.0,0 STARLINK-5990,1 56448U 23064A   23231.05109678  .00000692  00000-0  65830-4 0  9992,2 56448  70.0006 338.5831 0003330 268.9961  91.0817 14.98324392 15752,6950.21,96.107,574.39,569.761,0.0
56448.0,STARLINK-5990,PAYLOAD,2023-08-19 12:26:30,14.98333599,0.000329,70.0005,337.4048,269.7618,90.3164,6.3325e-05,6.63e-06,0.0,0 STARLINK-5990,1 56448U 23064A   23231.51841118  .00000663  00000-0  63325-4 0  9990,2 56448  70.0005 337.4048 0003290 269.7618  90.3164 14.98333599 15826,6950.182,96.107,574.333,569.76,0.0
56448.0,STARLINK-5990,PAYLOAD,2023-08-20 12:28:31,14.98328898,0.0003278,70.0007,334.8805,272.3799,87.6985,2.8833e-06,-5.9e-07,0.0,0 STARLINK-5990,1 56448U 23064A   23232.51981479 -.00000059  00000-0  28833-5 0  9992,2 56448  70.0007 334.8805 0003278 272.3799  87.6985 14.98328898 15978,6950.196,96.107,574.34,569.783,0.0
56448.0,STARLINK-5990,PAYLOAD,2023-08-20 17:16:55,14.98376782,0.0002987,70.0007,334.3752,264.5873,95.4945,-0.00074872,-9.026e-05,0.0,0 STARLINK-5990,1 56448U 23064A   23232.72008132 -.00009026  00000-0 -74872-3 0  9997,2 56448  70.0007 334.3752 0002987 264.5873  95.4945 14.98376782 16009,6950.048,96.104,573.989,569.837,0.0
56448.0,STARLINK-5990,PAYLOAD,2023-08-20 23:41:28,14.98332656,0.0003171,70.0013,333.7027,268.5417,91.5379,-9.9159e-05,-1.276e-05,0.0,0 STARLINK-5990,1 56448U 23064A   23232.98713441 -.00001276  00000-0 -99159-4 0  9996,2 56448  70.0013 333.7027 0003171 268.5417  91.5379 14.98332656 16042,6950.185,96.107,574.254,569.846,0.0
56448.0,STARLINK-5990,PAYLOAD,2023-08-22 09:20:17,14.98325587,0.0003121,70.0007,330.1675,265.3187,94.7616,-1.0711e-05,-2.21e-06,0.0,0 STARLINK-5990,1 56448U 23064A   23234.38909629 -.00000221  00000-0 -10711-4 0  9993,2 56448  70.0007 330.1675 0003121 265.3187  94.7616 14.98325587 16256,6950.207,96.107,574.241,569.902,0.0
56448.0,STARLINK-5990,PAYLOAD,2023-08-23 12:34:34,14.98329095,0.0003185,70.0009,327.3069,265.1672,94.9123,9.0325e-06,1.5e-07,0.0,0 STARLINK-5990,1 56448U 23064A   23235.52401491  .00000015  00000-0  90325-5 0  9993,2 56448  70.0009 327.3069 0003185 265.1672  94.9123 14.98329095 16422,6950.196,96.107,574.274,569.847,0.0
56448.0,STARLINK-5990,PAYLOAD,2023-08-24 11:00:27,14.98329442,0.0003262,70.0007,324.9508,265.9618,94.1168,6.1789e-05,6.44e-06,0.0,0 STARLINK-5990,1 56448U 23064A   23236.45865295  .00000644  00000-0  61789-4 0  9991,2 56448  70.0007 324.9508 0003262 265.9618  94.1168 14.98329442 16208,6950.195,96.107,574.327,569.792,0.0
56448.0,STARLINK-5990,PAYLOAD,2023-08-25 11:02:28,14.98334645,0.0003219,70.0008,322.4262,265.754,94.3252,1.6802e-05,1.07e-06,0.0,0 STARLINK-5990,1 56448U 23064A   23237.46004949  .00000107  00000-0  16802-4 0  9994,2 56448  70.0008 322.4262 0003219 265.7540  94.3252 14.98334645 16716,6950.179,96.107,574.281,569.806,0.0
56448.0,STARLINK-5990,PAYLOAD,2023-08-25 12:38:36,14.98335231,0.0003176,70.0008,322.258,264.6448,95.4348,2.4092e-05,1.94e-06,0.0,0 STARLINK-5990,1 56448U 23064A   23237.52680866  .00000194  00000-0  24092-4 0  9995,2 56448  70.0008 322.2580 0003176 264.6448  95.4348 14.98335231 16365,6950.177,96.107,574.249,569.834,0.0
56448.0,STARLINK-5990,PAYLOAD,2023-08-25 17:27:00,14.98338147,0.00033,70.0005,321.7524,269.331,90.747,4.8972e-05,4.91e-06,0.0,0 STARLINK-5990,1 56448U 23064A   23237.72708557  .00000491  00000-0  48972-4 0  9998,2 56448  70.0005 321.7524 0003300 269.3310  90.7470 14.98338147 16399,6950.168,96.106,574.326,569.739,0.0
56448.0,STARLINK-5990,PAYLOAD,2023-08-26 11:04:29,14.98328409,0.0003236,70.0005,319.9012,264.2574,95.8216,-5.3945e-05,-7.37e-06,0.0,0 STARLINK-5990,1 56448U 23064A   23238.46145307 -.00000737  00000-0 -53945-4 0  9999,2 56448  70.0005 319.9012 0003236 264.2574  95.8216 14.98328409 16860,6950.198,96.107,574.312,569.814,0.0
56448.0,STARLINK-5990,PAYLOAD,2023-08-26 15:52:53,14.98331792,0.0003215,70.0003,319.3962,264.2048,95.8744,-1.632e-05,-2.88e-06,0.0,0 STARLINK-5990,1 56448U 23064A   23238.66172969 -.00000288  00000-0 -16320-4 0  9992,2 56448  70.0003 319.3962 0003215 264.2048  95.8744 14.98331792 16538,6950.187,96.107,574.287,569.818,0.0
56448.0,STARLINK-5990,PAYLOAD,2023-08-27 09:30:22,14.9833125,0.0003236,70.0002,317.5446,265.5261,94.5528,-3.3775e-05,-4.96e-06,0.0,0 STARLINK-5990,1 56448U 23064A   23239.39608961 -.00000496  00000-0 -33775-4 0  9993,2 56448  70.0002 317.5446 0003236 265.5261  94.5528 14.98331250 16645,6950.189,96.107,574.303,569.805,0.0
56448.0,STARLINK-5990,PAYLOAD,2023-08-27 17:31:02,14.98336188,0.0003432,69.9995,316.7018,270.6786,89.398,1.5288e-05,8.9e-07,0.0,0 STARLINK-5990,1 56448U 23064A   23239.72988455  .00000089  00000-0  15288-4 0  9994,2 56448  69.9995 316.7018 0003432 270.6786  89.3980 14.98336188 17051,6950.174,96.107,574.424,569.653,0.0
56448.0,STARLINK-5990,PAYLOAD,2023-08-28 11:08:31,14.98322935,0.0003275,69.9995,314.85,266.0412,94.0372,-3.9756e-06,-1.4e-06,0.0,0 STARLINK-5990,1 56448U 23064A   23240.46425446 -.00000140  00000-0 -39756-5 0  9990,2 56448  69.9995 314.8500 0003275 266.0412  94.0372 14.98322935 17161,6950.215,96.107,574.356,569.804,0.0
